{"type": "FeatureCollection", "features": [ {"type": "Feature", "properties": {"norad_id": 34117, "name": "COSMOS 2251 DEB", "group": "cosmos-2251-debris", "lat": 71.5710398201493, "lon": 37.9959861012533, "alt_km": 716.174835139248, "timestamp": "2025-12-15T10:55:21.538384+00:00", "meta": {"OBJECT_NAME": "COSMOS 2251 DEB", "OBJECT_ID": "1993-036KN", "EPOCH": "2025-12-14T22:52:54.842592", "MEAN_MOTION": 14.40021118, "ECCENTRICITY": 0.00546181, "INCLINATION": 74.0402, "RA_OF_ASC_NODE": 339.7387, "ARG_OF_PERICENTER": 55.4565, "MEAN_ANOMALY": 305.1728, "EPHEMERIS_TYPE": 0, "CLASSIFICATION_TYPE": "U", "NORAD_CAT_ID": 34117, "ELEMENT_SET_NO": 999, "REV_AT_EPOCH": 88155, "BSTAR": 0.00059215626, "MEAN_MOTION_DOT": 1.873e-05, "MEAN_MOTION_DDOT": 0}, "tle": {"line1": "1 34117U 93036KN  25348.95341253  .00001873  00000+0  59216-3 0  9995", "line2": "2 34117  74.0402 339.7387 0054618  55.4565 305.1728 14.40021118881554"}}, "geometry": {"type": "Point", "coordinates": [37.9959861012533, 71.5710398201493]}}, {"type": "Feature", "properties": {"norad_id": 34118, "name": "COSMOS 2251 DEB", "group": "cosmos-2251-debris", "lat": -40.05567527030696, "lon": -130.19616499431118, "alt_km": 609.1808239588754, "timestamp": "2025-12-15T10:55:21.538394+00:00", "meta": {"OBJECT_NAME": "COSMOS 2251 DEB", "OBJECT_ID": "1993-036KP", "EPOCH": "2025-12-14T19:19:30.475776", "MEAN_MOTION": 14.94044359, "ECCENTRICITY": 0.00598962, "INCLINATION": 73.9523, "RA_OF_ASC_NODE": 245.1236, "ARG_OF_PERICENTER": 74.9737, "MEAN_ANOMALY": 349.6428, "EPHEMERIS_TYPE": 0, "CLASSIFICATION_TYPE": "U", "NORAD_CAT_ID": 34118, "ELEMENT_SET_NO": 999, "REV_AT_EPOCH": 89207, "BSTAR": 0.0013544165, "MEAN_MOTION_DOT": 0.00014971, "MEAN_MOTION_DDOT": 0}, "tle": {"line1": "1 34118U 93036KP  25348.80521384  .00014971  00000+0  13544-2 0  9991", "line2": "2 34118  73.9523 245.1236 0059896  74.9737 349.6428 14.94044359892070"}}, "geometry": {"type": "Point", "coordinates": [-130.19616499431118, -40.05567527030696]}}, {"type": "Feature", "properties": {"norad_id": 34120, "name": "COSMOS 2251 DEB", "group": "cosmos-2251-debris", "lat": 21.240505654072113, "lon": 25.110487254560628, "alt_km": 960.5020609307376, "timestamp": "2025-12-15T10:55:21.538404+00:00", "meta": {"OBJECT_NAME": "COSMOS 2251 DEB", "OBJECT_ID": "1993-036KR", "EPOCH": "2025-12-14T22:40:06.508128", "MEAN_MOTION": 13.98686188, "ECCENTRICITY": 0.01820661, "INCLINATION": 73.9909, "RA_OF_ASC_NODE": 212.4017, "ARG_OF_PERICENTER": 39.5951, "MEAN_ANOMALY": 66.3603, "EPHEMERIS_TYPE": 0, "CLASSIFICATION_TYPE": "U", "NORAD_CAT_ID": 34120, "ELEMENT_SET_NO": 999, "REV_AT_EPOCH": 86011, "BSTAR": 0.00034600474, "MEAN_MOTION_DOT": 5.49e-06, "MEAN_MOTION_DDOT": 0}, "tle": {"line1": "1 34120U 93036KR  25348.94451977  .00000549  00000+0  34600-3 0  9992", "line2": "2 34120  73.9909 212.4017 0182066  39.5951  66.3603 13.98686188860119"}}, "geometry": {"type": "Point", "coordinates": [25.110487254560628, 21.240505654072113]}}, {"type": "Feature", "properties": {"norad_id": 34121, "name": "COSMOS 2251 DEB", "group": "cosmos-2251-debris", "lat": -53.851683940009494, "lon": 69.37812314395042, "alt_km": 753.722439639947, "timestamp": "2025-12-15T10:55:21.538415+00:00", "meta": {"OBJECT_NAME": "COSMOS 2251 DEB", "OBJECT_ID": "1993-036KS", "EPOCH": "2025-12-14T23:42:43.179264", "MEAN_MOTION": 13.91938284, "ECCENTRICITY": 0.02404241, "INCLINATION": 73.9929, "RA_OF_ASC_NODE": 93.3169, "ARG_OF_PERICENTER": 298.2874, "MEAN_ANOMALY": 184.5864, "EPHEMERIS_TYPE": 0, "CLASSIFICATION_TYPE": "U", "NORAD_CAT_ID": 34121, "ELEMENT_SET_NO": 999, "REV_AT_EPOCH": 85156, "BSTAR": 0.0010580418, "MEAN_MOTION_DOT": 1.683e-05, "MEAN_MOTION_DDOT": 0}, "tle": {"line1": "1 34121U 93036KS  25348.98799976  .00001683  00000+0  10580-2 0  9991", "line2": "2 34121  73.9929  93.3169 0240424 298.2874 184.5864 13.91938284851568"}}, "geometry": {"type": "Point", "coordinates": [69.37812314395042, -53.851683940009494]}}, {"type": "Feature", "properties": {"norad_id": 34122, "name": "COSMOS 2251 DEB", "group": "cosmos-2251-debris", "lat": -7.018927484909355, "lon": -64.5700569183633, "alt_km": 739.8195916350733, "timestamp": "2025-12-15T10:55:21.538437+00:00", "meta": {"OBJECT_NAME": "COSMOS 2251 DEB", "OBJECT_ID": "1993-036KT", "EPOCH": "2025-12-14T19:53:53.985984", "MEAN_MOTION": 14.65083374, "ECCENTRICITY": 0.0084426, "INCLINATION": 74.0356, "RA_OF_ASC_NODE": 114.6141, "ARG_OF_PERICENTER": 10.8929, "MEAN_ANOMALY": 115.8272, "EPHEMERIS_TYPE": 0, "CLASSIFICATION_TYPE": "U", "NORAD_CAT_ID": 34122, "ELEMENT_SET_NO": 999, "REV_AT_EPOCH": 88715, "BSTAR": 0.00090128262, "MEAN_MOTION_DOT": 5.07e-05, "MEAN_MOTION_DDOT": 0}, "tle": {"line1": "1 34122U 93036KT  25348.82909706  .00005070  00000+0  90128-3 0  9990", "line2": "2 34122  74.0356 114.6141 0084426  10.8929 115.8272 14.65083374887156"}}, "geometry": {"type": "Point", "coordinates": [-64.5700569183633, -7.018927484909355]}}, {"type": "Feature", "properties": {"norad_id": 34127, "name": "COSMOS 2251 DEB", "group": "cosmos-2251-debris", "lat": 47.94279861788748, "lon": -159.35934380558035, "alt_km": 807.8505063618632, "timestamp": "2025-12-15T10:55:21.538448+00:00", "meta": {"OBJECT_NAME": "COSMOS 2251 DEB", "OBJECT_ID": "1993-036KY", "EPOCH": "2025-12-14T14:45:08.008128", "MEAN_MOTION": 14.31567162, "ECCENTRICITY": 0.01149659, "INCLINATION": 74.1797, "RA_OF_ASC_NODE": 40.4754, "ARG_OF_PERICENTER": 240.2031, "MEAN_ANOMALY": 240.9125, "EPHEMERIS_TYPE": 0, "CLASSIFICATION_TYPE": "U", "NORAD_CAT_ID": 34127, "ELEMENT_SET_NO": 999, "REV_AT_EPOCH": 86798, "BSTAR": 0.0014812585, "MEAN_MOTION_DOT": 4.214e-05, "MEAN_MOTION_DDOT": 0}, "tle": {"line1": "1 34127U 93036KY  25348.61467602  .00004214  00000+0  14813-2 0  9991", "line2": "2 34127  74.1797  40.4754 0114965 240.2031 240.9125 14.31567162867983"}}, "geometry": {"type": "Point", "coordinates": [-159.35934380558035, 47.94279861788748]}}, {"type": "Feature", "properties": {"norad_id": 34128, "name": "COSMOS 2251 DEB", "group": "cosmos-2251-debris", "lat": -59.143715789601536, "lon": -97.52378156492989, "alt_km": 574.613198813232, "timestamp": "2025-12-15T10:55:21.538458+00:00", "meta": {"OBJECT_NAME": "COSMOS 2251 DEB", "OBJECT_ID": "1993-036KZ", "EPOCH": "2025-12-14T22:41:08.231424", "MEAN_MOTION": 15.01264131, "ECCENTRICITY": 0.00259046, "INCLINATION": 73.9992, "RA_OF_ASC_NODE": 292.2215, "ARG_OF_PERICENTER": 43.8628, "MEAN_ANOMALY": 18.7233, "EPHEMERIS_TYPE": 0, "CLASSIFICATION_TYPE": "U", "NORAD_CAT_ID": 34128, "ELEMENT_SET_NO": 999, "REV_AT_EPOCH": 89200, "BSTAR": 0.0010561226, "MEAN_MOTION_DOT": 0.00013661, "MEAN_MOTION_DDOT": 0}, "tle": {"line1": "1 34128U 93036KZ  25348.94523416  .00013661  00000+0  10561-2 0  9996", "line2": "2 34128  73.9992 292.2215 0025904  43.8628  18.7233 15.01264131892000"}}, "geometry": {"type": "Point", "coordinates": [-97.52378156492989, -59.143715789601536]}}, {"type": "Feature", "properties": {"norad_id": 34129, "name": "COSMOS 2251 DEB", "group": "cosmos-2251-debris", "lat": -33.30164994419406, "lon": -36.62584180506552, "alt_km": 648.2241954851415, "timestamp": "2025-12-15T10:55:21.538469+00:00", "meta": {"OBJECT_NAME": "COSMOS 2251 DEB", "OBJECT_ID": "1993-036LA", "EPOCH": "2025-12-14T17:11:00.926880", "MEAN_MOTION": 14.75780109, "ECCENTRICITY": 0.0032979, "INCLINATION": 74.0353, "RA_OF_ASC_NODE": 335.6592, "ARG_OF_PERICENTER": 56.5165, "MEAN_ANOMALY": 303.9153, "EPHEMERIS_TYPE": 0, "CLASSIFICATION_TYPE": "U", "NORAD_CAT_ID": 34129, "ELEMENT_SET_NO": 999, "REV_AT_EPOCH": 61327, "BSTAR": 0.0011927469, "MEAN_MOTION_DOT": 8.22e-05, "MEAN_MOTION_DDOT": 0}, "tle": {"line1": "1 34129U 93036LA  25348.71598295  .00008220  00000+0  11927-2 0  9991", "line2": "2 34129  74.0353 335.6592 0032979  56.5165 303.9153 14.75780109613279"}}, "geometry": {"type": "Point", "coordinates": [-36.62584180506552, -33.30164994419406]}}, {"type": "Feature", "properties": {"norad_id": 34136, "name": "COSMOS 2251 DEB", "group": "cosmos-2251-debris", "lat": 16.746313241872862, "lon": -147.6681158200095, "alt_km": 569.3298024721835, "timestamp": "2025-12-15T10:55:21.538480+00:00", "meta": {"OBJECT_NAME": "COSMOS 2251 DEB", "OBJECT_ID": "1993-036LH", "EPOCH": "2025-12-14T22:00:15.478848", "MEAN_MOTION": 14.80099057, "ECCENTRICITY": 0.00856101, "INCLINATION": 74.0214, "RA_OF_ASC_NODE": 38.3389, "ARG_OF_PERICENTER": 160.733, "MEAN_ANOMALY": 14.7984, "EPHEMERIS_TYPE": 0, "CLASSIFICATION_TYPE": "U", "NORAD_CAT_ID": 34136, "ELEMENT_SET_NO": 999, "REV_AT_EPOCH": 90042, "BSTAR": 0.00031624831, "MEAN_MOTION_DOT": 2.516e-05, "MEAN_MOTION_DDOT": 0}, "tle": {"line1": "1 34136U 93036LH  25348.91684582  .00002516  00000+0  31625-3 0  9996", "line2": "2 34136  74.0214  38.3389 0085610 160.7330  14.7984 14.80099057900422"}}, "geometry": {"type": "Point", "coordinates": [-147.6681158200095, 16.746313241872862]}}, {"type": "Feature", "properties": {"norad_id": 34139, "name": "COSMOS 2251 DEB", "group": "cosmos-2251-debris", "lat": 37.08754325941625, "lon": -98.61046832561328, "alt_km": 687.4361707959106, "timestamp": "2025-12-15T10:55:21.538490+00:00", "meta": {"OBJECT_NAME": "COSMOS 2251 DEB", "OBJECT_ID": "1993-036LL", "EPOCH": "2025-12-14T20:14:38.402592", "MEAN_MOTION": 14.59099559, "ECCENTRICITY": 0.00425166, "INCLINATION": 74.0308, "RA_OF_ASC_NODE": 250.0531, "ARG_OF_PERICENTER": 320.7962, "MEAN_ANOMALY": 106.3313, "EPHEMERIS_TYPE": 0, "CLASSIFICATION_TYPE": "U", "NORAD_CAT_ID": 34139, "ELEMENT_SET_NO": 999, "REV_AT_EPOCH": 88180, "BSTAR": 0.00089295276, "MEAN_MOTION_DOT": 4.227e-05, "MEAN_MOTION_DDOT": 0}, "tle": {"line1": "1 34139U 93036LL  25348.84350003  .00004227  00000+0  89295-3 0  9996", "line2": "2 34139  74.0308 250.0531 0042516 320.7962 106.3313 14.59099559881805"}}, "geometry": {"type": "Point", "coordinates": [-98.61046832561328, 37.08754325941625]}}]}